start=new Date('2023-02-14T00:00:00.000Z').valueOf();
sats=[{"ECCENTRICITY":"0.00009740","BSTAR":"0.00160850000000","RA_OF_ASC_NODE":"354.9298","SITE":"AFETR","FILE":"3789648","MEAN_MOTION_DDOT":"0.0000000000000","RCS_SIZE":"LARGE","MEAN_MOTION":"15.06401424","OBJECT_TYPE":"PAYLOAD","LAUNCH_DATE":"2020-02-17","MEAN_ELEMENT_THEORY":"SGP4","PERIAPSIS":"546.535","CLASSIFICATION_TYPE":"U","COUNTRY_CODE":"US","TIME_SYSTEM":"UTC","DECAY_DATE":null,"OBJECT_NAME":"STARLINK-1191","MEAN_MOTION_DOT":"0.00023759","ELEMENT_SET_NO":"999","TLE_LINE2":"2 45222  53.0531 354.9298 0000974 117.8199 242.2889 15.06401424165633","PERIOD":"95.592","ARG_OF_PERICENTER":"117.8199","SEMIMAJOR_AXIS":"6925.344","CENTER_NAME":"EARTH","GP_ID":"225335040","TLE_LINE1":"1 45222U 20012AW  23044.59408200  .00023759  00000-0  16085-2 0  9999","MEAN_ANOMALY":"242.2889","EPHEMERIS_TYPE":"0","INCLINATION":"53.0531","OBJECT_ID":"2020-012AW","EPOCH":"2023-02-13T14:15:28.684800","APOAPSIS":"547.884","REV_AT_EPOCH":"16563","NORAD_CAT_ID":"45222","REF_FRAME":"TEME"},{"MEAN_ANOMALY":"347.9174","EPHEMERIS_TYPE":"0","CENTER_NAME":"EARTH","SEMIMAJOR_AXIS":"6925.306","TLE_LINE1":"1 45223U 20012AX  23044.54890611  .00029124  00000-0  19653-2 0  9992","GP_ID":"225335087","NORAD_CAT_ID":"45223","REF_FRAME":"TEME","EPOCH":"2023-02-13T13:10:25.487904","REV_AT_EPOCH":"16563","APOAPSIS":"547.720","INCLINATION":"53.0573","OBJECT_ID":"2020-012AX","RCS_SIZE":"LARGE","MEAN_MOTION_DDOT":"0.0000000000000","MEAN_MOTION":"15.06413823","OBJECT_TYPE":"PAYLOAD","LAUNCH_DATE":"2020-02-17","FILE":"3789657","SITE":"AFETR","RA_OF_ASC_NODE":"355.1108","ECCENTRICITY":"0.00007920","BSTAR":"0.00196530000000","TLE_LINE2":"2 45223  53.0573 355.1108 0000792  12.1834 347.9174 15.06413823165630","ARG_OF_PERICENTER":"12.1834","PERIOD":"95.591","OBJECT_NAME":"STARLINK-1212","MEAN_MOTION_DOT":"0.00029124","ELEMENT_SET_NO":"999","DECAY_DATE":null,"CLASSIFICATION_TYPE":"U","MEAN_ELEMENT_THEORY":"SGP4","PERIAPSIS":"546.623","TIME_SYSTEM":"UTC","COUNTRY_CODE":"US"},{"EPOCH":"2023-02-13T13:38:19.874112","APOAPSIS":"548.119","REV_AT_EPOCH":"16563","NORAD_CAT_ID":"45225","REF_FRAME":"TEME","INCLINATION":"53.0552","OBJECT_ID":"2020-012AZ","CENTER_NAME":"EARTH","SEMIMAJOR_AXIS":"6925.355","TLE_LINE1":"1 45225U 20012AZ  23044.56828558  .00013075  00000-0  89507-3 0  9991","GP_ID":"225334804","MEAN_ANOMALY":"274.1685","EPHEMERIS_TYPE":"0","OBJECT_NAME":"STARLINK-1215","ELEMENT_SET_NO":"999","MEAN_MOTION_DOT":"0.00013075","TLE_LINE2":"2 45225  53.0552 355.0446 0001297  85.9452 274.1685 15.06397783165632","ARG_OF_PERICENTER":"85.9452","PERIOD":"95.592","CLASSIFICATION_TYPE":"U","MEAN_ELEMENT_THEORY":"SGP4","PERIAPSIS":"546.322","TIME_SYSTEM":"UTC","COUNTRY_CODE":"US","DECAY_DATE":null,"SITE":"AFETR","FILE":"3789657","RCS_SIZE":"LARGE","MEAN_MOTION_DDOT":"0.0000000000000","MEAN_MOTION":"15.06397783","LAUNCH_DATE":"2020-02-17","OBJECT_TYPE":"PAYLOAD","ECCENTRICITY":"0.00012970","BSTAR":"0.00089507000000","RA_OF_ASC_NODE":"355.0446"},{"FILE":"3789366","SITE":"AFETR","MEAN_MOTION":"15.06395666","RCS_SIZE":"LARGE","MEAN_MOTION_DDOT":"0.0000000000000","LAUNCH_DATE":"2020-02-17","OBJECT_TYPE":"PAYLOAD","ECCENTRICITY":"0.00010600","BSTAR":"0.00007922900000","RA_OF_ASC_NODE":"355.0104","OBJECT_NAME":"STARLINK-1217","MEAN_MOTION_DOT":"0.00000899","ELEMENT_SET_NO":"999","TLE_LINE2":"2 45226  53.0537 355.0104 0001060  98.4855 261.6254 15.06395666166486","PERIOD":"95.592","ARG_OF_PERICENTER":"98.4855","PERIAPSIS":"546.493","MEAN_ELEMENT_THEORY":"SGP4","CLASSIFICATION_TYPE":"U","COUNTRY_CODE":"US","TIME_SYSTEM":"UTC","DECAY_DATE":null,"SEMIMAJOR_AXIS":"6925.362","CENTER_NAME":"EARTH","GP_ID":"225322166","TLE_LINE1":"1 45226U 20012BA  23044.57565437  .00000899  00000-0  79229-4 0  9998","MEAN_ANOMALY":"261.6254","EPHEMERIS_TYPE":"0","EPOCH":"2023-02-13T13:48:56.537568","APOAPSIS":"547.961","REV_AT_EPOCH":"16648","NORAD_CAT_ID":"45226","REF_FRAME":"TEME","OBJECT_ID":"2020-012BA","INCLINATION":"53.0537"},{"MEAN_MOTION_DOT":"0.00000561","ELEMENT_SET_NO":"999","OBJECT_NAME":"STARLINK-1221","ARG_OF_PERICENTER":"92.6126","PERIOD":"95.593","TLE_LINE2":"2 45227  53.0536 354.9146 0001598  92.6126 267.5046 15.06384795165601","TIME_SYSTEM":"UTC","COUNTRY_CODE":"US","CLASSIFICATION_TYPE":"U","PERIAPSIS":"546.153","MEAN_ELEMENT_THEORY":"SGP4","DECAY_DATE":null,"SITE":"AFETR","FILE":"3789652","LAUNCH_DATE":"2020-02-17","OBJECT_TYPE":"PAYLOAD","RCS_SIZE":"LARGE","MEAN_MOTION_DDOT":"0.0000000000000","MEAN_MOTION":"15.06384795","BSTAR":"0.00005655600000","ECCENTRICITY":"0.00015980","RA_OF_ASC_NODE":"354.9146","REV_AT_EPOCH":"16560","APOAPSIS":"548.367","EPOCH":"2023-02-13T14:20:47.772096","REF_FRAME":"TEME","NORAD_CAT_ID":"45227","INCLINATION":"53.0536","OBJECT_ID":"2020-012BB","TLE_LINE1":"1 45227U 20012BB  23044.59777514  .00000561  00000-0  56556-4 0  9996","GP_ID":"225335098","SEMIMAJOR_AXIS":"6925.395","CENTER_NAME":"EARTH","EPHEMERIS_TYPE":"0","MEAN_ANOMALY":"267.5046"},{"OBJECT_NAME":"STARLINK-1222","ELEMENT_SET_NO":"999","MEAN_MOTION_DOT":"0.00026486","TLE_LINE2":"2 45228  53.0541 356.9769 0001520 113.7332 246.3816 15.06404122166394","PERIOD":"95.592","ARG_OF_PERICENTER":"113.7332","MEAN_ELEMENT_THEORY":"SGP4","PERIAPSIS":"546.148","CLASSIFICATION_TYPE":"U","TIME_SYSTEM":"UTC","COUNTRY_CODE":"US","DECAY_DATE":null,"SITE":"AFETR","FILE":"3789366","RCS_SIZE":"LARGE","MEAN_MOTION_DDOT":"0.0000000000000","MEAN_MOTION":"15.06404122","LAUNCH_DATE":"2020-02-17","OBJECT_TYPE":"PAYLOAD","ECCENTRICITY":"0.00015200","BSTAR":"0.00179010000000","RA_OF_ASC_NODE":"356.9769","EPOCH":"2023-02-13T03:17:18.986784","APOAPSIS":"548.254","REV_AT_EPOCH":"16639","NORAD_CAT_ID":"45228","REF_FRAME":"TEME","INCLINATION":"53.0541","OBJECT_ID":"2020-012BC","CENTER_NAME":"EARTH","SEMIMAJOR_AXIS":"6925.336","GP_ID":"225321167","TLE_LINE1":"1 45228U 20012BC  23044.13702531  .00026486  00000-0  17901-2 0  9997","MEAN_ANOMALY":"246.3816","EPHEMERIS_TYPE":"0"},{"SEMIMAJOR_AXIS":"6925.362","CENTER_NAME":"EARTH","TLE_LINE1":"1 45229U 20012BD  23044.56459666  .00024988  00000-0  16907-2 0  9993","GP_ID":"225291448","MEAN_ANOMALY":"272.1300","EPHEMERIS_TYPE":"0","EPOCH":"2023-02-13T13:33:01.151424","APOAPSIS":"548.635","REV_AT_EPOCH":"16563","NORAD_CAT_ID":"45229","REF_FRAME":"TEME","INCLINATION":"53.0538","OBJECT_ID":"2020-012BD","FILE":"3788919","SITE":"AFETR","MEAN_MOTION":"15.06395478","RCS_SIZE":"LARGE","MEAN_MOTION_DDOT":"0.0000000000000","OBJECT_TYPE":"PAYLOAD","LAUNCH_DATE":"2020-02-17","ECCENTRICITY":"0.00020330","BSTAR":"0.00169070000000","RA_OF_ASC_NODE":"355.0578","OBJECT_NAME":"STARLINK-1226","MEAN_MOTION_DOT":"0.00024988","ELEMENT_SET_NO":"999","TLE_LINE2":"2 45229  53.0538 355.0578 0002033  87.9922 272.1300 15.06395478165630","ARG_OF_PERICENTER":"87.9922","PERIOD":"95.592","CLASSIFICATION_TYPE":"U","MEAN_ELEMENT_THEORY":"SGP4","PERIAPSIS":"545.819","COUNTRY_CODE":"US","TIME_SYSTEM":"UTC","DECAY_DATE":null},{"DECAY_DATE":null,"COUNTRY_CODE":"US","TIME_SYSTEM":"UTC","PERIAPSIS":"546.824","MEAN_ELEMENT_THEORY":"SGP4","CLASSIFICATION_TYPE":"U","PERIOD":"95.592","ARG_OF_PERICENTER":"98.7010","TLE_LINE2":"2 45230  53.0537 355.0796 0000569  98.7010 261.4043 15.06398691166583","MEAN_MOTION_DOT":"0.00009918","ELEMENT_SET_NO":"999","OBJECT_NAME":"STARLINK-1227","RA_OF_ASC_NODE":"355.0796","BSTAR":"0.00068377000000","ECCENTRICITY":"0.00005690","LAUNCH_DATE":"2020-02-17","OBJECT_TYPE":"PAYLOAD","RCS_SIZE":"LARGE","MEAN_MOTION":"15.06398691","MEAN_MOTION_DDOT":"0.0000000000000","SITE":"AFETR","FILE":"3789366","INCLINATION":"53.0537","OBJECT_ID":"2020-012BE","REF_FRAME":"TEME","NORAD_CAT_ID":"45230","APOAPSIS":"547.612","REV_AT_EPOCH":"16658","EPOCH":"2023-02-13T13:27:42.653376","EPHEMERIS_TYPE":"0","MEAN_ANOMALY":"261.4043","GP_ID":"225321669","TLE_LINE1":"1 45230U 20012BE  23044.56091034  .00009918  00000-0  68377-3 0  9991","CENTER_NAME":"EARTH","SEMIMAJOR_AXIS":"6925.353"},{"MEAN_ANOMALY":"252.9707","EPHEMERIS_TYPE":"0","SEMIMAJOR_AXIS":"6925.391","CENTER_NAME":"EARTH","GP_ID":"225291462","TLE_LINE1":"1 45232U 20012BG  23044.57102637  .00013665  00000-0  93482-3 0  9995","NORAD_CAT_ID":"45232","REF_FRAME":"TEME","EPOCH":"2023-02-13T13:42:16.678368","APOAPSIS":"548.211","REV_AT_EPOCH":"16561","OBJECT_ID":"2020-012BG","INCLINATION":"53.0521","RCS_SIZE":"LARGE","MEAN_MOTION_DDOT":"0.0000000000000","MEAN_MOTION":"15.06386040","LAUNCH_DATE":"2020-02-17","OBJECT_TYPE":"PAYLOAD","SITE":"AFETR","FILE":"3788920","RA_OF_ASC_NODE":"355.0263","ECCENTRICITY":"0.00013780","BSTAR":"0.00093482000000","TLE_LINE2":"2 45232  53.0521 355.0263 0001378 107.1433 252.9707 15.06386040165610","PERIOD":"95.593","ARG_OF_PERICENTER":"107.1433","OBJECT_NAME":"STARLINK-1235","MEAN_MOTION_DOT":"0.00013665","ELEMENT_SET_NO":"999","DECAY_DATE":null,"MEAN_ELEMENT_THEORY":"SGP4","PERIAPSIS":"546.302","CLASSIFICATION_TYPE":"U","COUNTRY_CODE":"US","TIME_SYSTEM":"UTC"},{"DECAY_DATE":null,"CLASSIFICATION_TYPE":"U","MEAN_ELEMENT_THEORY":"SGP4","PERIAPSIS":"545.939","TIME_SYSTEM":"UTC","COUNTRY_CODE":"US","TLE_LINE2":"2 45233  53.0553  14.8155 0001864  80.3976 279.7224 15.06394515165358","ARG_OF_PERICENTER":"80.3976","PERIOD":"95.592","OBJECT_NAME":"STARLINK-1238","MEAN_MOTION_DOT":"0.00012347","ELEMENT_SET_NO":"999","RA_OF_ASC_NODE":"14.8155","ECCENTRICITY":"0.00018640","BSTAR":"0.00084647000000","RCS_SIZE":"LARGE","MEAN_MOTION":"15.06394515","MEAN_MOTION_DDOT":"0.0000000000000","LAUNCH_DATE":"2020-02-17","OBJECT_TYPE":"PAYLOAD","FILE":"3789654","SITE":"AFETR","INCLINATION":"53.0553","OBJECT_ID":"2020-012BH","NORAD_CAT_ID":"45233","REF_FRAME":"TEME","EPOCH":"2023-02-13T14:49:59.056896","REV_AT_EPOCH":"16535","APOAPSIS":"548.521","MEAN_ANOMALY":"279.7224","EPHEMERIS_TYPE":"0","SEMIMAJOR_AXIS":"6925.365","CENTER_NAME":"EARTH","TLE_LINE1":"1 45233U 20012BH  23044.61804464  .00012347  00000-0  84647-3 0  9997","GP_ID":"225335123"}];
